{
  "type": "FeatureCollection",
  "features": [
    {
      "type": "Feature",
      "properties": {
        "norad_id": 41581,
        "name": "INTELSAT 31 (IS-31)",
        "group": "intelsat",
        "lat": -0.0008281352052307501,
        "lon": 144.7197502901639,
        "alt_km": 35782.76374095636,
        "timestamp": "2025-12-24T09:46:30.663451+00:00",
        "meta_object_name": "INTELSAT 31 (IS-31)",
        "meta_object_id": "2016-035A",
        "meta_epoch": "2025-12-23T19:31:44.703840",
        "meta_mean_motion": 1.00269658,
        "meta_eccentricity": 0.0001926,
        "meta_inclination": 0.0283,
        "meta_ra_of_asc_node": 262.055,
        "meta_arg_of_pericenter": 303.365,
        "meta_mean_anomaly": 85.0534,
        "meta_ephemeris_type": 0,
        "meta_classification_type": "U",
        "meta_norad_cat_id": 41581,
        "meta_element_set_no": 999,
        "meta_rev_at_epoch": 3492,
        "meta_bstar": 0,
        "meta_mean_motion_dot": -1.29e-06,
        "meta_mean_motion_ddot": 0,
        "tle_line1": "1 41581U 16035A   25357.81371185 -.00000129  00000+0  00000+0 0  9991",
        "tle_line2": "2 41581   0.0283 262.0550 0001926 303.3650  85.0534  1.00269658 34922"
      },
      "geometry": {
        "type": "Point",
        "coordinates": [
          144.7197502901639,
          -0.0008281352052307501
        ]
      }
    },
    {
      "type": "Feature",
      "properties": {
        "norad_id": 41747,
        "name": "INTELSAT 36 (IS-36)",
        "group": "intelsat",
        "lat": -0.029309883935349626,
        "lon": -51.70728541307474,
        "alt_km": 35781.677224129,
        "timestamp": "2025-12-24T09:46:30.663462+00:00",
        "meta_object_name": "INTELSAT 36 (IS-36)",
        "meta_object_id": "2016-053A",
        "meta_epoch": "2025-12-24T02:10:38.805024",
        "meta_mean_motion": 1.00271051,
        "meta_eccentricity": 0.0001143,
        "meta_inclination": 0.0107,
        "meta_ra_of_asc_node": 9.0027,
        "meta_arg_of_pericenter": 316.4873,
        "meta_mean_anomaly": 228.5357,
        "meta_ephemeris_type": 0,
        "meta_classification_type": "U",
        "meta_norad_cat_id": 41747,
        "meta_element_set_no": 999,
        "meta_rev_at_epoch": 3419,
        "meta_bstar": 0,
        "meta_mean_motion_dot": -3e-08,
        "meta_mean_motion_ddot": 0,
        "tle_line1": "1 41747U 16053A   25358.09072691 -.00000003  00000+0  00000+0 0  9997",
        "tle_line2": "2 41747   0.0107   9.0027 0001143 316.4873 228.5357  1.00271051 34198"
      },
      "geometry": {
        "type": "Point",
        "coordinates": [
          -51.70728541307474,
          -0.029309883935349626
        ]
      }
    },
    {
      "type": "Feature",
      "properties": {
        "norad_id": 41945,
        "name": "INTELSAT 32E (IS-32E)",
        "group": "intelsat",
        "lat": 0.018382530752141857,
        "lon": -163.37101988297172,
        "alt_km": 35787.5525848673,
        "timestamp": "2025-12-24T09:46:30.663474+00:00",
        "meta_object_name": "INTELSAT 32E (IS-32E)",
        "meta_object_id": "2017-007B",
        "meta_epoch": "2025-12-23T16:21:03.290976",
        "meta_mean_motion": 1.0026875,
        "meta_eccentricity": 2.529e-05,
        "meta_inclination": 0.0225,
        "meta_ra_of_asc_node": 67.8207,
        "meta_arg_of_pericenter": 7.8321,
        "meta_mean_anomaly": 218.9086,
        "meta_ephemeris_type": 0,
        "meta_classification_type": "U",
        "meta_norad_cat_id": 41945,
        "meta_element_set_no": 999,
        "meta_rev_at_epoch": 3246,
        "meta_bstar": 0,
        "meta_mean_motion_dot": -2.48e-06,
        "meta_mean_motion_ddot": 0,
        "tle_line1": "1 41945U 17007B   25357.68128809 -.00000248  00000+0  00000+0 0  9995",
        "tle_line2": "2 41945   0.0225  67.8207 0000252   7.8321 218.9086  1.00268750 32462"
      },
      "geometry": {
        "type": "Point",
        "coordinates": [
          -163.37101988297172,
          0.018382530752141857
        ]
      }
    },
    {
      "type": "Feature",
      "properties": {
        "norad_id": 42818,
        "name": "INTELSAT 35E (IS-35E)",
        "group": "intelsat",
        "lat": -0.002496845864892399,
        "lon": -154.7349528721369,
        "alt_km": 35785.200954184744,
        "timestamp": "2025-12-24T09:46:30.663485+00:00",
        "meta_object_name": "INTELSAT 35E (IS-35E)",
        "meta_object_id": "2017-041A",
        "meta_epoch": "2025-12-23T23:14:23.856288",
        "meta_mean_motion": 1.00266956,
        "meta_eccentricity": 0.0002031,
        "meta_inclination": 0.0217,
        "meta_ra_of_asc_node": 27.5752,
        "meta_arg_of_pericenter": 252.3996,
        "meta_mean_anomaly": 126.8659,
        "meta_ephemeris_type": 0,
        "meta_classification_type": "U",
        "meta_norad_cat_id": 42818,
        "meta_element_set_no": 999,
        "meta_rev_at_epoch": 3105,
        "meta_bstar": 0,
        "meta_mean_motion_dot": 0,
        "meta_mean_motion_ddot": 0,
        "tle_line1": "1 42818U 17041A   25357.96833167  .00000000  00000+0  00000+0 0  9999",
        "tle_line2": "2 42818   0.0217  27.5752 0002031 252.3996 126.8659  1.00266956 31056"
      },
      "geometry": {
        "type": "Point",
        "coordinates": [
          -154.7349528721369,
          -0.002496845864892399
        ]
      }
    },
    {
      "type": "Feature",
      "properties": {
        "norad_id": 42950,
        "name": "INTELSAT 37E (IS-37E)",
        "group": "intelsat",
        "lat": -0.018995794145350416,
        "lon": -138.2176205659099,
        "alt_km": 35776.74970064183,
        "timestamp": "2025-12-24T09:46:30.663497+00:00",
        "meta_object_name": "INTELSAT 37E (IS-37E)",
        "meta_object_id": "2017-059A",
        "meta_epoch": "2025-12-24T00:52:38.727840",
        "meta_mean_motion": 1.0027001,
        "meta_eccentricity": 0.000305,
        "meta_inclination": 0.0201,
        "meta_ra_of_asc_node": 17.6839,
        "meta_arg_of_pericenter": 244.2986,
        "meta_mean_anomaly": 185.9996,
        "meta_ephemeris_type": 0,
        "meta_classification_type": "U",
        "meta_norad_cat_id": 42950,
        "meta_element_set_no": 999,
        "meta_rev_at_epoch": 3031,
        "meta_bstar": 0,
        "meta_mean_motion_dot": 0,
        "meta_mean_motion_ddot": 0,
        "tle_line1": "1 42950U 17059A   25358.03655935  .00000000  00000+0  00000+0 0  9999",
        "tle_line2": "2 42950   0.0201  17.6839 0003050 244.2986 185.9996  1.00270010 30317"
      },
      "geometry": {
        "type": "Point",
        "coordinates": [
          -138.2176205659099,
          -0.018995794145350416
        ]
      }
    },
    {
      "type": "Feature",
      "properties": {
        "norad_id": 43632,
        "name": "AZERSPACE 2 (IS-38)",
        "group": "intelsat",
        "lat": -0.0379796860454607,
        "lon": -75.08833375419299,
        "alt_km": 35781.13463255295,
        "timestamp": "2025-12-24T09:46:30.663509+00:00",
        "meta_object_name": "AZERSPACE 2 (IS-38)",
        "meta_object_id": "2018-074A",
        "meta_epoch": "2025-12-24T00:05:38.704416",
        "meta_mean_motion": 1.00270613,
        "meta_eccentricity": 0.0001264,
        "meta_inclination": 0.0171,
        "meta_ra_of_asc_node": 357.1887,
        "meta_arg_of_pericenter": 275.4816,
        "meta_mean_anomaly": 226.6323,
        "meta_ephemeris_type": 0,
        "meta_classification_type": "U",
        "meta_norad_cat_id": 43632,
        "meta_element_set_no": 999,
        "meta_rev_at_epoch": 2669,
        "meta_bstar": 0,
        "meta_mean_motion_dot": 1.58e-06,
        "meta_mean_motion_ddot": 0,
        "tle_line1": "1 43632U 18074A   25358.00392019  .00000158  00000+0  00000+0 0  9997",
        "tle_line2": "2 43632   0.0171 357.1887 0001264 275.4816 226.6323  1.00270613 26691"
      },
      "geometry": {
        "type": "Point",
        "coordinates": [
          -75.08833375419299,
          -0.0379796860454607
        ]
      }
    },
    {
      "type": "Feature",
      "properties": {
        "norad_id": 43633,
        "name": "HORIZONS-3E",
        "group": "intelsat",
        "lat": -0.004886116463659038,
        "lon": 48.799372347753405,
        "alt_km": 35787.09539082964,
        "timestamp": "2025-12-24T09:46:30.663521+00:00",
        "meta_object_name": "HORIZONS-3E",
        "meta_object_id": "2018-074B",
        "meta_epoch": "2025-12-23T20:47:00.472416",
        "meta_mean_motion": 1.00269881,
        "meta_eccentricity": 5.75e-05,
        "meta_inclination": 0.0122,
        "meta_ra_of_asc_node": 213.39,
        "meta_arg_of_pericenter": 93.907,
        "meta_mean_anomaly": 266.0966,
        "meta_ephemeris_type": 0,
        "meta_classification_type": "U",
        "meta_norad_cat_id": 43633,
        "meta_element_set_no": 999,
        "meta_rev_at_epoch": 2658,
        "meta_bstar": 0,
        "meta_mean_motion_dot": 0,
        "meta_mean_motion_ddot": 0,
        "tle_line1": "1 43633U 18074B   25357.86597769  .00000000  00000+0  00000+0 0  9996",
        "tle_line2": "2 43633   0.0122 213.3900 0000575  93.9070 266.0966  1.00269881 26580"
      },
      "geometry": {
        "type": "Point",
        "coordinates": [
          48.799372347753405,
          -0.004886116463659038
        ]
      }
    }
  ]
}